0 SL-14 R/B
1 18153U 87055B   13282.17329441  .00000329  00000-0  38093-4 0  1465
2 18153 082.4982 288.5252 0022003 194.8534 212.2963 14.82344304418748
0 SL-14 R/B
1 18153U 87055B   13283.47706905  .00000312  00000-0  35925-4 0  1477
2 18153 082.4981 287.3024 0022127 190.5625 329.8112 14.82345062418936
0 SL-14 R/B
1 18153U 87055B   13285.56575973  .00000313  00000-0  36058-4 0  1499
2 18153 082.4980 285.3433 0022303 183.7796 315.8996 14.82346266419243
0 SL-14 R/B
1 18153U 87055B   13286.57814572  .00000374  00000-0  43611-4 0  1504
2 18153 082.4980 284.3937 0022392 180.4975 318.3964 14.82346671419391
0 SL-14 R/B
1 18153U 87055B   13287.72259640  .00000397  00000-0  46530-4 0  1510
2 18153 082.4982 283.3202 0022494 176.7973 305.6324 14.82348167419566
0 SL-14 R/B
1 18153U 87055B   13289.19732192  .00000382  00000-0  44548-4 0  1523
2 18153 082.4985 281.9368 0022589 172.0238 255.3575 14.82349862419780
0 SL-14 R/B
1 18153U 87055B   13290.49595814  .00000428  00000-0  50373-4 0  1531
2 18153 082.4987 280.7186 0022685 167.8027 345.4267 14.82350563419972
0 SL-14 R/B
1 18153U 87055B   13291.50783041  .00000419  00000-0  49176-4 0  1545
2 18153 082.4989 279.7694 0022772 164.5702 345.1481 14.82351285420123
0 SL-14 R/B
1 18153U 87055B   13292.51170573  .00000437  00000-0  51490-4 0  1550
2 18153 082.4991 278.8278 0022869 161.5161 302.0443 14.82351943420274
0 SL-14 R/B
1 18153U 87055B   13293.52512505  .00000477  00000-0  56410-4 0  1569
2 18153 082.4992 277.8773 0022950 158.3161 309.9897 14.82352572420424
0 SL-14 R/B
1 18153U 87055B   13294.67549451  .00000537  00000-0  63830-4 0  1578
2 18153 082.4992 276.7985 0023038 154.6864 328.7486 14.82353462420594
0 SL-14 R/B
1 18153U 87055B   13296.15003630  .00000509  00000-0  60381-4 0  1585
2 18153 082.4992 275.4156 0023136 150.0975 277.3379 14.82355372420819
